IRIDIUM 119             
1 42959U 17061E   23239.71553904  .00000293  00000+0  97728-4 0  9997
2 42959  86.3923  93.4127 0002332  90.6322 269.5141 14.34219586307977
IRIDIUM 107             
1 42960U 17061F   23239.10665231  .00000334  00000+0  11213-3 0  9999
2 42960  86.3925  93.6825 0002365  85.1495 274.9971 14.34218527307890
IRIDIUM 132             
1 42961U 17061G   23239.67114337  .00000281  00000+0  93156-4 0  9996
2 42961  86.3923  93.4325 0002354  88.0654 272.0811 14.34218294307971
IRIDIUM 136             
1 42962U 17061H   23239.70285506  .00000297  00000+0  98857-4 0  9998
2 42962  86.3923  93.4214 0002068  94.5913 265.5519 14.34219785307991
IRIDIUM 139             
1 42963U 17061J   23239.70919972  .00000304  00000+0  10135-3 0  9991
2 42963  86.3924  93.4646 0002355  86.4001 273.7464 14.34217863308007
IRIDIUM 125             
1 42964U 17061K   23239.13836661  .00000291  00000+0  96800-4 0  9991
2 42964  86.3927  93.7456 0002392  89.4029 270.7441 14.34217600307939
IRIDIUM 135             
1 43070U 17083A   23239.39156951  .00000350  00000+0  11791-3 0  9990
2 43070  86.3978  30.2949 0002070  82.4083 277.7348 14.34217992297264
IRIDIUM 138             
1 43071U 17083B   23239.69601198  .00000388  00000+0  13153-3 0  9997
2 43071  86.3967  29.9215 0002296  94.3641 265.7818 14.34219402297296
